NORAD_CAT_ID,OBJECT_NAME,OBJECT_TYPE,EPOCH,MEAN_MOTION,ECCENTRICITY,INCLINATION,RA_OF_ASC_NODE,ARG_OF_PERICENTER,MEAN_ANOMALY,BSTAR,MEAN_MOTION_DOT,MEAN_MOTION_DDOT,TLE_LINE0,TLE_LINE1,TLE_LINE2,SEMIMAJOR_AXIS,PERIOD,APOGEE,PERIGEE,DECAYED
53932.0,STARLINK-4772,PAYLOAD,2023-04-15 16:58:11,15.08841206,0.0001384,53.218,13.1694,94.1114,266.0037,9.2794e-05,1.189e-05,0.0,0 STARLINK-4772,1 53932U 22119AY  23105.70707558  .00001189  00000-0  92794-4 0  9991,2 53932  53.2180  13.1694 0001384  94.1114 266.0037 15.08841206 31747,6917.877,95.437,540.699,538.784,0.0
53932.0,STARLINK-4772,PAYLOAD,2023-04-15 21:44:20,15.08840125,0.0001114,53.2176,12.2776,100.38,259.7318,8.0174e-05,9.88e-06,0.0,0 STARLINK-4772,1 53932U 22119AY  23105.90579104  .00000988  00000-0  80174-4 0  9992,2 53932  53.2176  12.2776 0001114 100.3800 259.7318 15.08840125 32208,6917.88,95.438,540.516,538.974,0.0
53932.0,STARLINK-4772,PAYLOAD,2023-04-16 02:30:29,15.08845625,8.76e-05,53.2172,11.3859,89.539,270.5702,0.00028516,4.254e-05,0.0,0 STARLINK-4772,1 53932U 22119AY  23106.10451152  .00004254  00000-0  28516-3 0  9998,2 53932  53.2172  11.3859 0000876  89.5390 270.5702 15.08845625 32233,6917.863,95.437,540.334,539.122,0.0
53932.0,STARLINK-4772,PAYLOAD,2023-04-16 21:35:07,15.08839737,7.71e-05,53.2177,7.8198,83.318,276.79,0.00023488,3.452e-05,0.0,0 STARLINK-4772,1 53932U 22119AY  23106.89939542  .00003452  00000-0  23488-3 0  9990,2 53932  53.2177   7.8198 0000771  83.3180 276.7900 15.08839737 32355,6917.881,95.438,540.28,539.213,0.0
53932.0,STARLINK-4772,PAYLOAD,2023-04-17 02:21:17,15.08849769,0.0001024,53.2183,6.9258,78.9051,281.2056,0.00060952,9.428e-05,0.0,0 STARLINK-4772,1 53932U 22119AY  23107.09811388  .00009428  00000-0  60952-3 0  9996,2 53932  53.2183   6.9258 0001024  78.9051 281.2056 15.08849769 31952,6917.851,95.437,540.424,539.007,0.0
53932.0,STARLINK-4772,PAYLOAD,2023-04-17 18:15:08,15.08840974,8.45e-05,53.2172,3.9528,96.7398,263.3691,0.00026041,3.859e-05,0.0,0 STARLINK-4772,1 53932U 22119AY  23107.76051658  .00003859  00000-0  26041-3 0  9999,2 53932  53.2172   3.9528 0000845  96.7398 263.3691 15.08840974 32056,6917.877,95.437,540.327,539.158,0.0
53932.0,STARLINK-4772,PAYLOAD,2023-04-17 21:25:54,15.08842184,9.27e-05,53.2173,3.3578,91.252,268.8578,0.00034392,5.19e-05,0.0,0 STARLINK-4772,1 53932U 22119AY  23107.89299644  .00005190  00000-0  34392-3 0  9990,2 53932  53.2173   3.3578 0000927  91.2520 268.8578 15.08842184 32503,6917.874,95.437,540.38,539.097,0.0
53932.0,STARLINK-4772,PAYLOAD,2023-04-18 02:12:04,15.08846037,9.87e-05,53.2169,2.4656,90.0889,270.0216,0.00078858,0.00012287,0.0,0 STARLINK-4772,1 53932U 22119AY  23108.09171727  .00012287  00000-0  78858-3 0  9994,2 53932  53.2169   2.4656 0000987  90.0889 270.0216 15.08846037 32534,6917.862,95.437,540.41,539.044,0.0
53932.0,STARLINK-4772,PAYLOAD,2023-04-18 16:30:33,15.08833537,0.0001056,53.2164,359.789,94.436,265.6753,0.00057033,8.799e-05,0.0,0 STARLINK-4772,1 53932U 22119AY  23108.68788228  .00008799  00000-0  57033-3 0  9994,2 53932  53.2164 359.7890 0001056  94.4360 265.6753 15.08833537 32624,6917.9,95.438,540.496,539.035,0.0
53932.0,STARLINK-4772,PAYLOAD,2023-04-19 02:02:51,15.08845693,0.0001029,53.2164,358.0049,87.6675,272.4435,0.00080098,0.00012485,0.0,0 STARLINK-4772,1 53932U 22119AY  23109.08532203  .00012485  00000-0  80098-3 0  9993,2 53932  53.2164 358.0049 0001029  87.6675 272.4435 15.08845693 32680,6917.863,95.437,540.44,539.016,0.0
53932.0,STARLINK-4772,PAYLOAD,2023-04-20 01:53:38,15.0885421,9e-05,53.2159,353.5446,87.679,272.4305,0.00089419,0.00013977,0.0,0 STARLINK-4772,1 53932U 22119AY  23110.07892279  .00013977  00000-0  89419-3 0  9999,2 53932  53.2159 353.5446 0000900  87.6790 272.4305 15.08854210 32401,6917.837,95.437,540.325,539.079,0.0
53932.0,STARLINK-4772,PAYLOAD,2023-04-20 19:22:53,15.0884426,8.67e-05,53.2171,350.2739,94.0602,266.0489,0.00066745,0.00010352,0.0,0 STARLINK-4772,1 53932U 22119AY  23110.80756347  .00010352  00000-0  66745-3 0  9996,2 53932  53.2171 350.2739 0000867  94.0602 266.0489 15.08844260 32945,6917.867,95.437,540.332,539.133,0.0
53932.0,STARLINK-4772,PAYLOAD,2023-04-20 20:58:16,15.08846248,8.98e-05,53.2168,349.9767,90.7736,269.3359,0.00075209,0.00011704,0.0,0 STARLINK-4772,1 53932U 22119AY  23110.87380344  .00011704  00000-0  75209-3 0  9990,2 53932  53.2168 349.9767 0000898  90.7736 269.3359 15.08846248 32526,6917.861,95.437,540.348,539.105,0.0
53932.0,STARLINK-4772,PAYLOAD,2023-04-21 22:24:26,15.08849711,9.46e-05,53.2168,345.2181,82.516,277.594,0.0003448,5.205e-05,0.0,0 STARLINK-4772,1 53932U 22119AY  23111.93364101  .00005205  00000-0  34480-3 0  9996,2 53932  53.2168 345.2181 0000946  82.5160 277.5940 15.08849711 33110,6917.851,95.437,540.37,539.061,0.0
53932.0,STARLINK-4772,PAYLOAD,2023-04-22 17:29:04,15.0884414,0.0001061,53.2174,341.654,92.0918,268.0195,0.00011336,1.517e-05,0.0,0 STARLINK-4772,1 53932U 22119AY  23112.72852103  .00001517  00000-0  11336-3 0  9995,2 53932  53.2174 341.6540 0001061  92.0918 268.0195 15.08844140 32805,6917.868,95.437,540.467,538.999,0.0
53932.0,STARLINK-4772,PAYLOAD,2023-04-22 22:15:13,15.08848793,0.0001016,53.2175,340.7613,108.9638,251.1465,0.00019024,2.742e-05,0.0,0 STARLINK-4772,1 53932U 22119AY  23112.92723831  .00002742  00000-0  19024-3 0  9995,2 53932  53.2175 340.7613 0001016 108.9638 251.1465 15.08848793 33265,6917.854,95.437,540.421,539.016,0.0
53932.0,STARLINK-4772,PAYLOAD,2023-04-23 01:25:59,15.08852072,0.0001009,53.2173,340.1653,105.2631,254.8473,0.00024831,3.668e-05,0.0,0 STARLINK-4772,1 53932U 22119AY  23113.05971656  .00003668  00000-0  24831-3 0  9990,2 53932  53.2173 340.1653 0001009 105.2631 254.8473 15.08852072 32854,6917.843,95.437,540.407,539.01,0.0
53932.0,STARLINK-4772,PAYLOAD,2023-04-23 14:09:04,15.08841628,0.0001081,53.2175,337.786,89.3392,270.7724,6.9064e-05,8.12e-06,0.0,0 STARLINK-4772,1 53932U 22119AY  23113.58964012  .00000812  00000-0  69064-4 0  9992,2 53932  53.2175 337.7860 0001081  89.3392 270.7724 15.08841628 33362,6917.875,95.437,540.488,538.993,0.0
53932.0,STARLINK-4772,PAYLOAD,2023-04-23 17:19:51,15.08839938,9.47e-05,53.2172,337.1908,93.924,266.186,4.9723e-05,5.04e-06,0.0,0 STARLINK-4772,1 53932U 22119AY  23113.72212065  .00000504  00000-0  49723-4 0  9990,2 53932  53.2172 337.1908 0000947  93.9240 266.1860 15.08839938 33382,6917.881,95.438,540.401,539.09,0.0
53932.0,STARLINK-4772,PAYLOAD,2023-04-24 01:16:46,15.08855591,9.68e-05,53.2164,335.7037,89.6158,270.4945,0.00042796,6.533e-05,0.0,0 STARLINK-4772,1 53932U 22119AY  23114.05331744  .00006533  00000-0  42796-3 0  9993,2 53932  53.2164 335.7037 0000968  89.6158 270.4945 15.08855591 33007,6917.833,95.437,540.367,539.028,0.0
53932.0,STARLINK-4772,PAYLOAD,2023-04-25 01:07:32,15.08881255,0.0001389,53.2178,331.2468,72.8767,287.2378,0.00081785,0.00012767,0.0,0 STARLINK-4772,1 53932U 22119AY  23115.04690136  .00012767  00000-0  81785-3 0  9993,2 53932  53.2178 331.2468 0001389  72.8767 287.2378 15.08881255 33157,6917.754,95.435,540.58,538.658,0.0
53932.0,STARLINK-4772,PAYLOAD,2023-04-26 00:58:23,15.08779455,9.44e-05,53.2164,326.783,63.1865,296.9223,-0.00088605,-0.00014338,0.0,0 STARLINK-4772,1 53932U 22119AY  23116.04054497 -.00014338  00000-0 -88605-3 0  9994,2 53932  53.2164 326.7830 0000944  63.1865 296.9223 15.08779455 33730,6918.065,95.441,540.584,539.277,0.0
53932.0,STARLINK-4772,PAYLOAD,2023-04-26 20:03:01,15.08817019,8.13e-05,53.2152,323.2137,46.0127,314.0932,0.0023213,0.00036825,0.0,0 STARLINK-4772,1 53932U 22119AY  23116.83543322  .00036825  00000-0  23213-2 0  9997,2 53932  53.2152 323.2137 0000813  46.0127 314.0932 15.08817019 33856,6917.951,95.439,540.378,539.253,0.0
53932.0,STARLINK-4772,PAYLOAD,2023-04-27 23:04:32,15.08888217,9.54e-05,53.2161,318.1583,41.5907,318.5158,0.00099943,0.00015675,0.0,0 STARLINK-4772,1 53932U 22119AY  23117.96148507  .00015675  00000-0  99943-3 0  9992,2 53932  53.2161 318.1583 0000954  41.5907 318.5158 15.08888217 33594,6917.733,95.435,540.258,538.938,0.0
53932.0,STARLINK-4772,PAYLOAD,2023-04-28 16:33:46,15.08857924,7.7e-05,53.2166,314.8882,50.9921,309.1139,5.295e-05,5.56e-06,0.0,0 STARLINK-4772,1 53932U 22119AY  23118.69012149  .00000556  00000-0  52950-4 0  9995,2 53932  53.2166 314.8882 0000770  50.9921 309.1139 15.08857924 33709,6917.826,95.436,540.223,539.158,0.0
53932.0,STARLINK-4772,PAYLOAD,2023-04-29 13:13:47,15.0883037,8.5e-05,53.2173,311.0217,64.4572,295.6508,0.00040578,6.174e-05,0.0,0 STARLINK-4772,1 53932U 22119AY  23119.55124652  .00006174  00000-0  40578-3 0  9998,2 53932  53.2173 311.0217 0000850  64.4572 295.6508 15.08830370 34266,6917.91,95.438,540.363,539.187,0.0
53932.0,STARLINK-4772,PAYLOAD,2023-04-29 16:24:34,15.08830347,8.34e-05,53.2169,310.4273,59.8466,300.2608,0.0006226,9.632e-05,0.0,0 STARLINK-4772,1 53932U 22119AY  23119.68372821  .00009632  00000-0  62260-3 0  9999,2 53932  53.2169 310.4273 0000834  59.8466 300.2608 15.08830347 33850,6917.91,95.438,540.352,539.198,0.0
53932.0,STARLINK-4772,PAYLOAD,2023-04-30 11:29:11,15.08838116,9.22e-05,53.2158,306.8596,61.1265,298.982,0.00031811,4.778e-05,0.0,0 STARLINK-4772,1 53932U 22119AY  23120.47861063  .00004778  00000-0  31811-3 0  9993,2 53932  53.2158 306.8596 0000922  61.1265 298.9820 15.08838116 34409,6917.886,95.438,540.389,539.113,0.0
53932.0,STARLINK-4772,PAYLOAD,2023-04-30 17:50:44,15.08842735,8.81e-05,53.216,305.6702,65.4908,294.6176,0.00024773,3.657e-05,0.0,0 STARLINK-4772,1 53932U 22119AY  23120.74356912  .00003657  00000-0  24773-3 0  9999,2 53932  53.2160 305.6702 0000881  65.4908 294.6176 15.08842735 34019,6917.872,95.437,540.346,539.128,0.0
53932.0,STARLINK-4772,PAYLOAD,2023-05-01 00:12:16,15.08851386,8.71e-05,53.2161,304.4803,65.7245,294.3838,0.00043939,6.714e-05,0.0,0 STARLINK-4772,1 53932U 22119AY  23121.00852603  .00006714  00000-0  43939-3 0  9999,2 53932  53.2161 304.4803 0000871  65.7245 294.3838 15.08851386 34053,6917.846,95.437,540.313,539.108,0.0
